CZ-4B R/B               
1 29507U 06046C   26193.10606043  .00002345  00000+0  11739-3 0  9997
2 29507  97.5443 237.6364 0032259 192.9535 167.0873 15.17966223 78912
CZ-2C R/B               
1 31114U 07010B   26193.21000016  .00000018  00000+0  27583-4 0  9996
2 31114  98.4116 300.3395 0057830 292.6249  66.8819 14.20281345997396
COSMO-SKYMED 1          
1 31598U 07023A   26193.19793471  .00001303  00000+0  11783-3 0  9999
2 31598  97.8843  25.2653 0001178 101.7788 258.3565 14.97210574 33537
COSMOS 2428             
1 31792U 07029A   26192.63907471  .00000175  00000+0  11955-3 0  9993
2 31792  70.9382 303.1376 0007178  88.1796 272.0147 14.12932455981601
SL-16 R/B               
1 31793U 07029B   26192.65116434 -.00000003  00000+0  23494-4 0  9990
2 31793  70.9748 271.8031 0002041 256.6911 209.7663 14.14850744982908
KORONAS-FOTON           
1 33504U 09003A   26192.86858644  .00008175  00000+0  16498-3 0  9997
2 33504  82.4297 146.5036 0012389  72.5138 287.7464 15.46244824964910
CZ-2C R/B               
1 37731U 11030B   26192.89633321  .00000579  00000+0  79146-4 0  9992
2 37731  97.8668 147.8393 0050985 307.1677 116.7810 14.81528551808482
H-2A R/B                
1 38341U 12025E   26192.97509808  .00000814  00000+0  77947-4 0  9995
2 38341  98.4848 170.1683 0042324 266.0127  93.6253 14.95832922766795
SHIJIAN-16 (SJ-16)      
1 39358U 13057A   26193.17311642  .00001369  00000+0  13528-3 0  9990
2 39358  74.9737 309.3581 0015905 172.2268 187.9170 14.92668499690077
SL-4 R/B                
1 39679U 14021B   26193.14115566  .00005567  00000+0  11874-3 0  9998
2 39679  51.6063  88.4767 0089812 197.2226 162.5706 15.42441534675462
ALOS-2                  
1 39766U 14029A   26193.23095904  .00001134  00000+0  15874-3 0  9996
2 39766  97.9226 290.0366 0001586  94.5560 265.5833 14.79469947655281
YAOGAN-29               
1 41038U 15069A   26193.20829937 -.00000267  00000+0 -26192-4 0  9998
2 41038  98.0028 221.8795 0001005  16.0534 344.0710 14.83103708574330
ASTRO-H (HITOMI)        
1 41337U 16012A   26192.41706620  .00001617  00000+0  89720-4 0  9998
2 41337  30.9994 277.6935 0009573 137.3545 222.7837 15.10623257570954
HXMT (HUIYAN)           
1 42758U 17034A   26193.06295352  .00002958  00000+0  14977-3 0  9998
2 42758  43.0151  44.5064 0032578 301.6112  58.1559 15.18672268501447
SAOCOM 1A               
1 43641U 18076A   26193.18244396 -.00000397  00000+0 -43389-4 0  9999
2 43641  97.8890  19.5682 0001462  82.6109 277.5270 14.82144061419804
H-2A R/B                
1 43682U 18084L   26192.85849294  .00012377  00000+0  25311-3 0  9997
2 43682  98.8545  77.1554 0020679 312.9103  47.0405 15.46112925424934
SAOCOM 1B               
1 46265U 20059A   26193.14615832  .00000500  00000+0  69301-4 0  9997
2 46265  97.8893  18.6285 0001575  81.4705 278.6687 14.82157622317184
CSS (TIANHE)            
1 48274U 21035A   26193.01000834  .00001353  00000+0  21785-4 0  9991
2 48274  41.4681 171.1379 0002233 286.8224  73.2369 15.58033896297042
COSMOS 2550             
1 48865U 21056A   26193.12926247  .00000593  00000+0  23857-4 0  9994
2 48865  67.1435  24.4579 0008431 271.0153  89.0035 15.33805963282544
CZ-2C R/B               
1 52794U 22058K   26192.98753016  .00028373  00000+0  29589-3 0  9991
2 52794  50.1857  34.3009 0030434   9.2054 350.9472 15.63671011229529
CZ-2C R/B               
1 54039U 22132E   26192.58017608  .00043213  00000+0  29533-3 0  9993
2 54039  97.2899 200.7470 0010135 357.5073   2.6140 15.74627248209782
GSLV R/B                
1 54149U 22138AN  26192.84539850  .00001495  00000+0  12552-3 0  9997
2 54149  87.3818 124.7042 0023842  63.2043 297.1624 14.97373371202502
XRISM                   
1 57800U 23137A   26193.06900625  .00002219  00000+0  11827-3 0  9990
2 57800  31.0006 198.4018 0007830 215.4513 144.5606 15.12656285156630
ACS3                    
1 59588U 24077B   26192.74048558  .00010248  00000+0  71308-2 0  9991
2 59588  97.1723 106.0854 0121011  40.7850 320.2298 13.95349463111466
SPACEMOBILE-003         
1 61045U 24163A   26193.12443382  .00000008  00000+0  15017-4 0  9995
2 61045  52.9645 194.7701 0003953 176.8899 183.2120 15.20757146101564
SPACEMOBILE-005         
1 61046U 24163B   26192.45071654  .00003056  00000+0  15155-3 0  9998
2 61046  52.9788 197.8076 0008894 184.8633 175.2276 15.20765383101459
SPACEMOBILE-001         
1 61047U 24163C   26192.44911904  .00000309  00000+0  28551-4 0  9992
2 61047  52.9736 197.5273 0007475 183.3179 176.7767 15.20792937101458
SPACEMOBILE-002         
1 61048U 24163D   26192.03876027  .00008243  00000+0  38281-3 0  9999
2 61048  52.9623 199.4399 0006620 180.9990 179.0992 15.20841812101395
SPACEMOBILE-004         
1 61049U 24163E   26193.00710093  .00011603  00000+0  53337-3 0  9991
2 61049  52.9666 194.7854 0006095 215.6608 144.3979 15.20795353101540
CZ-8A R/B               
1 66004U 25231K   26192.50811089 -.00000094  00000+0  24968-4 0  9997
2 66004  50.0050 295.8455 0116515 309.6324  49.4354 14.30161531 38423
