OBJECT_NAME,OBJECT_ID,EPOCH,MEAN_MOTION,ECCENTRICITY,INCLINATION,RA_OF_ASC_NODE,ARG_OF_PERICENTER,MEAN_ANOMALY,EPHEMERIS_TYPE,CLASSIFICATION_TYPE,NORAD_CAT_ID,ELEMENT_SET_NO,REV_AT_EPOCH,BSTAR,MEAN_MOTION_DOT,MEAN_MOTION_DDOT
CZ-4B R/B,2006-046C,2026-07-12T02:32:43.621152,15.17966223,.0032259,97.5443,237.6364,192.9535,167.0873,0,U,29507,999,7891,.11739E-3,.2345E-4,0
CZ-2C R/B,2007-010B,2026-07-12T05:02:24.013824,14.20281345,.005783,98.4116,300.3395,292.6249,66.8819,0,U,31114,999,99739,.27583E-4,.18E-6,0
COSMO-SKYMED 1,2007-023A,2026-07-12T04:45:01.558944,14.97210574,.0001178,97.8843,25.2653,101.7788,258.3565,0,U,31598,999,3353,.11783E-3,.1303E-4,0
COSMOS 2428,2007-029A,2026-07-11T15:20:16.054944,14.12932455,.00071784,70.9382,303.1376,88.1796,272.0147,0,U,31792,999,98160,.1195521E-3,.175E-5,0
SL-16 R/B,2007-029B,2026-07-11T15:37:40.598976,14.14850744,.00020413,70.9748,271.8031,256.6911,209.7663,0,U,31793,999,98290,.23493934E-4,-.3E-7,0
KORONAS-FOTON,2009-003A,2026-07-11T20:50:45.868416,15.46244824,.00123893,82.4297,146.5036,72.5138,287.7464,0,U,33504,999,96491,.16497862E-3,.8175E-4,0
CZ-2C R/B,2011-030B,2026-07-11T21:30:43.189344,14.81528551,.0050985,97.8668,147.8393,307.1677,116.7810,0,U,37731,999,80848,.79146E-4,.579E-5,0
H-2A R/B,2012-025E,2026-07-11T23:24:08.474112,14.95832922,.0042324,98.4848,170.1683,266.0127,93.6253,0,U,38341,999,76679,.77947E-4,.814E-5,0
SHIJIAN-16 (SJ-16),2013-057A,2026-07-12T04:09:17.258688,14.92668499,.0015905,74.9737,309.3581,172.2268,187.9170,0,U,39358,999,69007,.13528E-3,.1369E-4,0
SL-4 R/B,2014-021B,2026-07-12T03:23:15.849024,15.42441534,.0089812,51.6063,88.4767,197.2226,162.5706,0,U,39679,999,67546,.11874E-3,.5567E-4,0
ALOS-2,2014-029A,2026-07-12T05:32:34.861056,14.79469947,.0001586,97.9226,290.0366,94.5560,265.5833,0,U,39766,999,65528,.15874E-3,.1134E-4,0
YAOGAN-29,2015-069A,2026-07-12T04:59:57.065568,14.83103708,.0001005,98.0028,221.8795,16.0534,344.0710,0,U,41038,999,57433,-.26192E-4,-.267E-5,0
ASTRO-H (HITOMI),2016-012A,2026-07-11T10:00:34.519680,15.10623257,.00095739,30.9994,277.6935,137.3545,222.7837,0,U,41337,999,57095,.8971969E-4,.1617E-4,0
HXMT (HUIYAN),2017-034A,2026-07-12T01:30:39.184128,15.18672268,.0032578,43.0151,44.5064,301.6112,58.1559,0,U,42758,999,50144,.14977E-3,.2958E-4,0
SAOCOM 1A,2018-076A,2026-07-12T04:22:43.158144,14.82144061,.0001462,97.8890,19.5682,82.6109,277.5270,0,U,43641,999,41980,-.43389E-4,-.397E-5,0
H-2A R/B,2018-084L,2026-07-11T20:36:13.790016,15.46112925,.0020679,98.8545,77.1554,312.9103,47.0405,0,U,43682,999,42493,.25311102E-3,.12377E-3,0
SAOCOM 1B,2020-059A,2026-07-12T03:30:28.078848,14.82157622,.0001575,97.8893,18.6285,81.4705,278.6687,0,U,46265,999,31718,.69301E-4,.5E-5,0
CSS (TIANHE),2021-035A,2026-07-12T00:14:24.720576,15.58033896,.0002233,41.4681,171.1379,286.8224,73.2369,0,U,48274,999,29704,.21785E-4,.1353E-4,0
COSMOS 2550,2021-056A,2026-07-12T03:06:08.277408,15.33805963,.0008431,67.1435,24.4579,271.0153,89.0035,0,U,48865,999,28254,.23857E-4,.593E-5,0
CZ-2C R/B,2022-058K,2026-07-11T23:42:02.605824,15.63671011,.0030434,50.1857,34.3009,9.2054,350.9472,0,U,52794,999,22952,.29589E-3,.28373E-3,0
CZ-2C R/B,2022-132E,2026-07-11T13:55:27.213312,15.74627248,.00101357,97.2899,200.7470,357.5073,2.6140,0,U,54039,999,20978,.29532847E-3,.43213E-3,0
GSLV R/B,2022-138AN,2026-07-11T20:17:22.430400,14.97373371,.00238429,87.3818,124.7042,63.2043,297.1624,0,U,54149,999,20250,.12552224E-3,.1495E-4,0
XRISM,2023-137A,2026-07-12T01:39:22.140000,15.12656285,.000783,31.0006,198.4018,215.4513,144.5606,0,U,57800,999,15663,.11827E-3,.2219E-4,0
ACS3,2024-077B,2026-07-11T17:46:17.954112,13.95349463,.0121011,97.1723,106.0854,40.7850,320.2298,0,U,59588,999,11146,.71308E-2,.10248E-3,0
SPACEMOBILE-003,2024-163A,2026-07-12T02:59:11.082048,15.20757146,.0003953,52.9645,194.7701,176.8899,183.2120,0,U,61045,999,10156,.15017E-4,.8E-7,0
SPACEMOBILE-005,2024-163B,2026-07-11T10:49:01.909056,15.20765383,.00088948,52.9788,197.8076,184.8633,175.2276,0,U,61046,999,10145,.15154729E-3,.3056E-4,0
SPACEMOBILE-001,2024-163C,2026-07-11T10:46:43.885056,15.20792937,.0007475,52.9736,197.5273,183.3179,176.7767,0,U,61047,999,10145,.28551E-4,.309E-5,0
SPACEMOBILE-002,2024-163D,2026-07-11T00:55:48.887328,15.20841812,.00066201,52.9623,199.4399,180.9990,179.0992,0,U,61048,999,10139,.38280824E-3,.8243E-4,0
SPACEMOBILE-004,2024-163E,2026-07-12T00:10:13.520352,15.20795353,.0006095,52.9666,194.7854,215.6608,144.3979,0,U,61049,999,10154,.53337E-3,.11603E-3,0
CZ-8A R/B,2025-231K,2026-07-11T12:11:40.780896,14.30161531,.01165156,50.0050,295.8455,309.6324,49.4354,0,U,66004,999,3842,.24968206E-4,-.94E-6,0
